{
    "links": {
        "self": "http://www.neowsapp.com/rest/v1/neo/3555707?api_key=iIulBulltgU6a56xZRHN4H3l9WmuAYTsLGpBGhQ2"
    },
    "id": "3555707",
    "neo_reference_id": "3555707",
    "name": "(2011 BV15)",
    "designation": "2011 BV15",
    "nasa_jpl_url": "http://ssd.jpl.nasa.gov/sbdb.cgi?sstr=3555707",
    "absolute_magnitude_h": 20.4,
    "estimated_diameter": {
        "kilometers": {
            "estimated_diameter_min": 0.2210828104,
            "estimated_diameter_max": 0.4943561926
        },
        "meters": {
            "estimated_diameter_min": 221.0828103591,
            "estimated_diameter_max": 494.3561926196
        },
        "miles": {
            "estimated_diameter_min": 0.137374447,
            "estimated_diameter_max": 0.3071786018
        },
        "feet": {
            "estimated_diameter_min": 725.3373275385,
            "estimated_diameter_max": 1621.9035709942
        }
    },
    "is_potentially_hazardous_asteroid": false,
    "close_approach_data": [
        {
            "close_approach_date": "1943-01-13",
            "close_approach_date_full": "1943-Jan-13 07:10",
            "epoch_date_close_approach": -851014200000,
            "relative_velocity": {
                "kilometers_per_second": "13.9238511961",
                "kilometers_per_hour": "50125.8643059578",
                "miles_per_hour": "31146.2627405547"
            },
            "miss_distance": {
                "astronomical": "0.409106395",
                "lunar": "159.142387655",
                "kilometers": "61201445.29537865",
                "miles": "38028814.68697937"
            },
            "orbiting_body": "Earth"
        },
        {
            "close_approach_date": "1998-01-14",
            "close_approach_date_full": "1998-Jan-14 18:37",
            "epoch_date_close_approach": 884803020000,
            "relative_velocity": {
                "kilometers_per_second": "13.0023267785",
                "kilometers_per_hour": "46808.3764027688",
                "miles_per_hour": "29084.9047709316"
            },
            "miss_distance": {
                "astronomical": "0.368646855",
                "lunar": "143.403626595",
                "kilometers": "55148784.29019885",
                "miles": "34267865.53589013"
            },
            "orbiting_body": "Earth"
        },
        {
            "close_approach_date": "2011-01-23",
            "close_approach_date_full": "2011-Jan-23 20:33",
            "epoch_date_close_approach": 1295814780000,
            "relative_velocity": {
                "kilometers_per_second": "12.0278706505",
                "kilometers_per_hour": "43300.3343417251",
                "miles_per_hour": "26905.1438580569"
            },
            "miss_distance": {
                "astronomical": "0.4799272815",
                "lunar": "186.6917125035",
                "kilometers": "71796099.067290405",
                "miles": "44612027.273221389"
            },
            "orbiting_body": "Earth"
        },
        {
            "close_approach_date": "2040-01-12",
            "close_approach_date_full": "2040-Jan-12 14:35",
            "epoch_date_close_approach": 2209991700000,
            "relative_velocity": {
                "kilometers_per_second": "15.0485105984",
                "kilometers_per_hour": "54174.638154325",
                "miles_per_hour": "33662.0133576138"
            },
            "miss_distance": {
                "astronomical": "0.4764222206",
                "lunar": "185.3282438134",
                "kilometers": "71271749.422430122",
                "miles": "44286211.5121828036"
            },
            "orbiting_body": "Earth"
        }
    ],
    "orbital_data": {
        "orbit_id": "15",
        "orbit_determination_date": "2017-04-06 08:54:50",
        "first_observation_date": "2011-01-25",
        "last_observation_date": "2011-02-25",
        "data_arc_in_days": 31,
        "observations_used": 54,
        "orbit_uncertainty": "6",
        "minimum_orbit_intersection": ".361047",
        "jupiter_tisserand_invariant": "3.451",
        "epoch_osculation": "2459000.5",
        "eccentricity": ".4310104101079165",
        "semi_major_axis": "2.186195018884653",
        "inclination": "23.68003304979853",
        "ascending_node_longitude": "135.142288943971",
        "orbital_period": "1180.6788335294",
        "perihelion_distance": "1.243922207219295",
        "perihelion_argument": "306.4854158689495",
        "aphelion_distance": "3.128467830550012",
        "perihelion_time": "2459063.384406015843",
        "mean_anomaly": "340.825957472253",
        "mean_motion": ".3049093367108588",
        "equinox": "J2000",
        "orbit_class": {
            "orbit_class_type": "AMO",
            "orbit_class_description": "Near-Earth asteroid orbits similar to that of 1221 Amor",
            "orbit_class_range": "1.017 AU < q (perihelion) < 1.3 AU"
        }
    },
    "is_sentry_object": false
}